0 SL-12 R/B(AUX MOTOR)
1 29680U 06062G   13281.40376997  .00000061  00000-0  26955-3 0  5105
2 29680 065.2643 263.5086 5587505 077.4255 024.1516 04.23323828104883
0 SL-12 R/B(AUX MOTOR)
1 29680U 06062G   13287.05601759  .00000045  00000-0  31895-3 0  5122
2 29680 065.2616 261.5675 5587178 077.1227 358.0147 04.23324082105127
0 SL-12 R/B(AUX MOTOR)
1 29680U 06062G   13289.18452411  .00000051  00000-0  45646-3 0  5134
2 29680 065.2605 260.8368 5587051 077.0086 001.8001 04.23324077105214
0 SL-12 R/B(AUX MOTOR)
1 29680U 06062G   13291.32513503  .00000034  00000-0  25880-3 0  5143
2 29680 065.2596 260.1020 5586919 076.8940 024.0300 04.23324448105300
0 SL-12 R/B(AUX MOTOR)
1 29680U 06062G   13293.45313552  .00000055  00000-0  45750-3 0  5153
2 29680 065.2587 259.3717 5586792 076.7796 027.0481 04.23324342105395
